{
  "type": "FeatureCollection",
  "features": [
    {
      "type": "Feature",
      "properties": {
        "norad_id": 34389,
        "name": "COSMOS 2251 DEB",
        "group": "cosmos-2251-debris",
        "lat": -9.10752121302093,
        "lon": -116.75260426874713,
        "alt_km": 736.6033061510952,
        "timestamp": "2025-12-14T20:40:32.167110+00:00",
        "meta_object_name": "COSMOS 2251 DEB",
        "meta_object_id": "1993-036QE",
        "meta_epoch": "2025-12-14T04:39:17.094240",
        "meta_mean_motion": 14.41538553,
        "meta_eccentricity": 0.00289916,
        "meta_inclination": 74.0194,
        "meta_ra_of_asc_node": 247.1177,
        "meta_arg_of_pericenter": 358.8456,
        "meta_mean_anomaly": 129.0267,
        "meta_ephemeris_type": 0,
        "meta_classification_type": "U",
        "meta_norad_cat_id": 34389,
        "meta_element_set_no": 999,
        "meta_rev_at_epoch": 88033,
        "meta_bstar": 0.00047580572,
        "meta_mean_motion_dot": 1.528e-05,
        "meta_mean_motion_ddot": 0,
        "tle_line1": "1 34389U 93036QE  25348.19394785  .00001528  00000+0  47581-3 0  9999",
        "tle_line2": "2 34389  74.0194 247.1177 0028991 358.8456 129.0267 14.41538553880339"
      },
      "geometry": {
        "type": "Point",
        "coordinates": [
          -116.75260426874713,
          -9.10752121302093
        ]
      }
    },
    {
      "type": "Feature",
      "properties": {
        "norad_id": 34396,
        "name": "COSMOS 2251 DEB",
        "group": "cosmos-2251-debris",
        "lat": 13.175835884709368,
        "lon": -63.95710761776745,
        "alt_km": 643.451425993886,
        "timestamp": "2025-12-14T20:40:32.167120+00:00",
        "meta_object_name": "COSMOS 2251 DEB",
        "meta_object_id": "1993-036QM",
        "meta_epoch": "2025-12-14T08:39:49.258656",
        "meta_mean_motion": 14.74482625,
        "meta_eccentricity": 0.00058527,
        "meta_inclination": 74.0278,
        "meta_ra_of_asc_node": 120.8648,
        "meta_arg_of_pericenter": 160.638,
        "meta_mean_anomaly": 229.9149,
        "meta_ephemeris_type": 0,
        "meta_classification_type": "U",
        "meta_norad_cat_id": 34396,
        "meta_element_set_no": 999,
        "meta_rev_at_epoch": 88370,
        "meta_bstar": 0.0022685409,
        "meta_mean_motion_dot": 0.00015086,
        "meta_mean_motion_ddot": 0,
        "tle_line1": "1 34396U 93036QM  25348.36098679  .00015086  00000+0  22685-2 0  9990",
        "tle_line2": "2 34396  74.0278 120.8648 0005852 160.6380 229.9149 14.74482625883703"
      },
      "geometry": {
        "type": "Point",
        "coordinates": [
          -63.95710761776745,
          13.175835884709368
        ]
      }
    },
    {
      "type": "Feature",
      "properties": {
        "norad_id": 34400,
        "name": "COSMOS 2251 DEB",
        "group": "cosmos-2251-debris",
        "lat": 35.50725321161199,
        "lon": 30.49942240184765,
        "alt_km": 402.92741520964137,
        "timestamp": "2025-12-14T20:40:32.167131+00:00",
        "meta_object_name": "COSMOS 2251 DEB",
        "meta_object_id": "1993-036QR",
        "meta_epoch": "2025-12-14T05:04:10.233120",
        "meta_mean_motion": 15.5427253,
        "meta_eccentricity": 0.00047739,
        "meta_inclination": 73.965,
        "meta_ra_of_asc_node": 20.0994,
        "meta_arg_of_pericenter": 265.2319,
        "meta_mean_anomaly": 94.8351,
        "meta_ephemeris_type": 0,
        "meta_classification_type": "U",
        "meta_norad_cat_id": 34400,
        "meta_element_set_no": 999,
        "meta_rev_at_epoch": 89997,
        "meta_bstar": 0.0036534471,
        "meta_mean_motion_dot": 0.00246338,
        "meta_mean_motion_ddot": 0,
        "tle_line1": "1 34400U 93036QR  25348.21122955  .00246338  00000+0  36534-2 0  9999",
        "tle_line2": "2 34400  73.9650  20.0994 0004773 265.2319  94.8351 15.54272530899972"
      },
      "geometry": {
        "type": "Point",
        "coordinates": [
          30.49942240184765,
          35.50725321161199
        ]
      }
    },
    {
      "type": "Feature",
      "properties": {
        "norad_id": 34409,
        "name": "COSMOS 2251 DEB",
        "group": "cosmos-2251-debris",
        "lat": -64.21629126155125,
        "lon": -93.45608384260879,
        "alt_km": 701.9853633440562,
        "timestamp": "2025-12-14T20:40:32.167141+00:00",
        "meta_object_name": "COSMOS 2251 DEB",
        "meta_object_id": "1993-036RA",
        "meta_epoch": "2025-12-14T08:23:51.421344",
        "meta_mean_motion": 14.58032154,
        "meta_eccentricity": 0.00799082,
        "meta_inclination": 74.0633,
        "meta_ra_of_asc_node": 303.7792,
        "meta_arg_of_pericenter": 17.6713,
        "meta_mean_anomaly": 109.666,
        "meta_ephemeris_type": 0,
        "meta_classification_type": "U",
        "meta_norad_cat_id": 34409,
        "meta_element_set_no": 999,
        "meta_rev_at_epoch": 89216,
        "meta_bstar": 0.00035946009,
        "meta_mean_motion_dot": 1.696e-05,
        "meta_mean_motion_ddot": 0,
        "tle_line1": "1 34409U 93036RA  25348.34990071  .00001696  00000+0  35946-3 0  9997",
        "tle_line2": "2 34409  74.0633 303.7792 0079908  17.6713 109.6660 14.58032154892161"
      },
      "geometry": {
        "type": "Point",
        "coordinates": [
          -93.45608384260879,
          -64.21629126155125
        ]
      }
    },
    {
      "type": "Feature",
      "properties": {
        "norad_id": 34410,
        "name": "COSMOS 2251 DEB",
        "group": "cosmos-2251-debris",
        "lat": 68.45531337259484,
        "lon": -55.09604080365945,
        "alt_km": 487.4499976824509,
        "timestamp": "2025-12-14T20:40:32.167151+00:00",
        "meta_object_name": "COSMOS 2251 DEB",
        "meta_object_id": "1993-036RB",
        "meta_epoch": "2025-12-14T05:13:27.479424",
        "meta_mean_motion": 15.19123116,
        "meta_eccentricity": 0.00217303,
        "meta_inclination": 73.7359,
        "meta_ra_of_asc_node": 258.5911,
        "meta_arg_of_pericenter": 99.9297,
        "meta_mean_anomaly": 56.4284,
        "meta_ephemeris_type": 0,
        "meta_classification_type": "U",
        "meta_norad_cat_id": 34410,
        "meta_element_set_no": 999,
        "meta_rev_at_epoch": 89796,
        "meta_bstar": 0.0025041715,
        "meta_mean_motion_dot": 0.00053279,
        "meta_mean_motion_ddot": 0,
        "tle_line1": "1 34410U 93036RB  25348.21767916  .00053279  00000+0  25042-2 0  9994",
        "tle_line2": "2 34410  73.7359 258.5911 0021730  99.9297  56.4284 15.19123116897965"
      },
      "geometry": {
        "type": "Point",
        "coordinates": [
          -55.09604080365945,
          68.45531337259484
        ]
      }
    },
    {
      "type": "Feature",
      "properties": {
        "norad_id": 34412,
        "name": "COSMOS 2251 DEB",
        "group": "cosmos-2251-debris",
        "lat": 54.839404188264886,
        "lon": -15.254442880915876,
        "alt_km": 596.3719717185322,
        "timestamp": "2025-12-14T20:40:32.167171+00:00",
        "meta_object_name": "COSMOS 2251 DEB",
        "meta_object_id": "1993-036RD",
        "meta_epoch": "2025-12-14T07:08:35.604384",
        "meta_mean_motion": 14.4715886,
        "meta_eccentricity": 0.01872081,
        "meta_inclination": 73.9482,
        "meta_ra_of_asc_node": 321.6799,
        "meta_arg_of_pericenter": 56.3917,
        "meta_mean_anomaly": 305.495,
        "meta_ephemeris_type": 0,
        "meta_classification_type": "U",
        "meta_norad_cat_id": 34412,
        "meta_element_set_no": 999,
        "meta_rev_at_epoch": 87673,
        "meta_bstar": 0.0015937107,
        "meta_mean_motion_dot": 7.224e-05,
        "meta_mean_motion_ddot": 0,
        "tle_line1": "1 34412U 93036RD  25348.29763431  .00007224  00000+0  15937-2 0  9993",
        "tle_line2": "2 34412  73.9482 321.6799 0187208  56.3917 305.4950 14.47158860876734"
      },
      "geometry": {
        "type": "Point",
        "coordinates": [
          -15.254442880915876,
          54.839404188264886
        ]
      }
    },
    {
      "type": "Feature",
      "properties": {
        "norad_id": 34413,
        "name": "COSMOS 2251 DEB",
        "group": "cosmos-2251-debris",
        "lat": 50.43152929992779,
        "lon": -78.7005791656353,
        "alt_km": 773.6535792129789,
        "timestamp": "2025-12-14T20:40:32.167182+00:00",
        "meta_object_name": "COSMOS 2251 DEB",
        "meta_object_id": "1993-036RE",
        "meta_epoch": "2025-12-14T06:02:59.621280",
        "meta_mean_motion": 14.29116591,
        "meta_eccentricity": 0.00909026,
        "meta_inclination": 74.0308,
        "meta_ra_of_asc_node": 262.131,
        "meta_arg_of_pericenter": 338.3437,
        "meta_mean_anomaly": 179.9858,
        "meta_ephemeris_type": 0,
        "meta_classification_type": "U",
        "meta_norad_cat_id": 34413,
        "meta_element_set_no": 999,
        "meta_rev_at_epoch": 87152,
        "meta_bstar": 0.0018275192,
        "meta_mean_motion_dot": 4.822e-05,
        "meta_mean_motion_ddot": 0,
        "tle_line1": "1 34413U 93036RE  25348.25207895  .00004822  00000+0  18275-2 0  9996",
        "tle_line2": "2 34413  74.0308 262.1310 0090902 338.3437 179.9858 14.29116591871524"
      },
      "geometry": {
        "type": "Point",
        "coordinates": [
          -78.7005791656353,
          50.43152929992779
        ]
      }
    }
  ]
}